COSMOS 2058             
1 20465U 90010A   26091.09153954  .00006580  00000+0  38644-3 0  9997
2 20465  82.4712  25.3541 0007653 252.6612 107.3781 15.11536754945629
SL-14 R/B               
1 20466U 90010B   26090.94414752  .00000681  00000+0  79591-4 0  9990
2 20466  82.5001 246.4786 0018780 223.4943 136.4792 14.83590753931789
SL-14 R/B               
1 20511U 90018B   26091.05082554  .00000596  00000+0  71774-4 0  9993
2 20511  82.5239 202.1938 0016695  23.3164 336.8804 14.82167665925892
HST                     
1 20580U 90037B   26091.12518911  .00010706  00000+0  35185-3 0  9998
2 20580  28.4719 246.9114 0001974  26.3027 333.7668 15.29843870776751
SL-16 R/B               
1 20625U 90046B   26091.17718199  .00000120  00000+0  86465-4 0  9990
2 20625  70.9983 250.6813 0016448 270.3201  89.6037 14.15018108851574
COSMOS 2084             
1 20663U 90055A   26091.16912669  .00003199  00000+0  23313-3 0  9990
2 20663  62.7892 258.8986 0013458 197.4488 162.6152 15.05781279939707
SL-6 R/B(2)             
1 20666U 90055D   26090.98311738  .00002722  00000+0  21049-3 0  9997
2 20666  62.7835 178.0323 0028468 352.0719   7.9926 15.03704201941541
SL-8 R/B                
1 20775U 90078B   26091.08108282  .00013809  00000+0  40923-3 0  9993
2 20775  82.9032 231.1595 0357967 298.4482  58.1101 14.89725195812634
SL-8 R/B                
1 21088U 91006B   26091.21286867  .00000121  00000+0  10654-3 0  9995
2 21088  82.9439 153.3005 0021626 335.4519  78.5931 13.77497883767178
OKEAN-3                 
1 21397U 91039A   26091.21996936  .00003007  00000+0  21008-3 0  9990
2 21397  82.5154 315.0126 0012518 253.6565 106.3286 15.04935022868421
COSMOS 2151             
1 21422U 91042A   26091.16179134  .00002104  00000+0  16607-3 0  9996
2 21422  82.4950  61.9921 0012002 352.4037   7.7003 15.00203421866564
SL-14 R/B               
1 21423U 91042B   26091.04110531  .00000619  00000+0  75246-4 0  9994
2 21423  82.4957 199.2278 0017488 163.0627 197.1175 14.81852780856385
